STARLINK-4536           
1 53783U 22111L   26182.86333528  .00000753  00000+0  65381-4 0  9991
2 53783  53.1608 121.3124 0001436  91.9556 268.1600 15.08836569210933
STARLINK-4687           
1 53784U 22111M   26182.91668981  .00944897  00000+0  35199-1 0  9999
2 53784  53.1608 120.6151 0001809  90.2924  77.1183 15.24362227  5794
STARLINK-4743           
1 53787U 22111Q   26182.91668981  .00054448  00000+0  26150-2 0  9994
2 53787  53.1613 120.8059 0001355  58.7348   8.8932 15.18344035  5790
STARLINK-4666           
1 53789U 22111S   26182.11627552  .00008451  00000+0  54843-3 0  9991
2 53789  53.1595 124.4724 0001510  88.7785 271.3380 15.08838986210818
STARLINK-4734           
1 53790U 22111T   26182.91668981  .00060366  00000+0  27213-2 0  9995
2 53790  53.1610 120.7287 0002102  67.1528  40.2518 15.20483784  5796
STARLINK-4739           
1 53792U 22111V   26182.91668981  .01151379  00000+0  45286-1 0  9992
2 53792  53.1606 121.0690 0000801 124.8348 164.4916 15.22419152  5803
STARLINK-4728           
1 53793U 22111W   26182.91668981  .01257046  00000+0  54025-1 0  9992
2 53793  53.1610 120.7124 0002006  81.9388  30.4826 15.19105087  5642
STARLINK-4730           
1 53794U 22111X   26182.91668981  .00055304  00000+0  24612-2 0  9995
2 53794  53.1618 120.6776 0001959  79.0780  53.2227 15.20966831  5791
STARLINK-4742           
1 53795U 22111Y   26182.91668981  .00022936  00000+0  12980-2 0  9996
2 53795  53.1604 120.7988 0001034  68.1332 359.5524 15.12971054  5751
STARLINK-4723           
1 53797U 22111AA  26182.91668981  .00742092  00000+0  33471-1 0  9997
2 53797  53.1596 120.5293 0001229  99.7649 108.2319 15.18010257  5809
STARLINK-4712           
1 53798U 22111AB  26182.91668981  .00048550  00000+0  22550-2 0  9993
2 53798  53.1597 120.5060 0001838 104.5059 114.9162 15.19555999  5706
STARLINK-4710           
1 53799U 22111AC  26182.91668981  .00942647  00000+0  31200-1 0  9995
2 53799  53.1593 110.1889 0001485  67.5974 327.0709 15.28302842  5744
STARLINK-4720           
1 53800U 22111AD  26182.90971057  .00055691  00000+0  62436-3 0  9999
2 53800  53.2073  48.0614 0002976 129.8563 230.2714 15.62149773211951
STARLINK-4715           
1 53801U 22111AE  26182.91668981  .01025757  00000+0  36685-1 0  9996
2 53801  53.1592 110.1881 0001170  75.5529 318.9387 15.25496218  5654
STARLINK-4726           
1 53802U 22111AF  26182.91668981  .00838480  00000+0  27514-1 0  9992
2 53802  53.1594 110.0583 0001580  89.4947  12.1229 15.28464862  5794
STARLINK-4727           
1 53803U 22111AG  26182.93741480  .00003300  00000+0  22541-3 0  9993
2 53803  53.1608  96.1042 0002048  74.6808 285.4410 15.08832272211278
STARLINK-4729           
1 53804U 22111AH  26182.78285974  .00000850  00000+0  71485-4 0  9997
2 53804  53.1605 106.5381 0001370  84.8003 275.3144 15.08837863211111
STARLINK-4763           
1 53805U 22111AJ  26182.91668981  .00044667  00000+0  24413-2 0  9997
2 53805  53.1585  96.2404 0001676 106.2479 119.1404 15.13883003  5809
STARLINK-4768           
1 53806U 22111AK  26182.91898873 -.00000021  00000+0  16780-4 0  9990
2 53806  53.1605  95.9858 0001421  88.9909 271.1245 15.08832745211277
STARLINK-4738           
1 53819U 22114B   26182.91668981  .01267283  00000+0  51211-1 0  9992
2 53819  53.1619 150.6723 0000817 111.4020 215.6184 15.21202914  5708
STARLINK-4758           
1 53820U 22114C   26182.19453640 -.00000254  00000+0  21466-5 0  9994
2 53820  53.1602 154.6176 0001119  78.7065 281.4052 15.08834330209965
STARLINK-4748           
1 53823U 22114F   26182.96185695  .00035636  00000+0  22271-2 0  9997
2 53823  53.1612 105.9312 0002326 102.9539 257.1712 15.09145688210717
STARLINK-4757           
1 53824U 22114G   26182.91203221  .00000732  00000+0  64068-4 0  9990
2 53824  53.1597 150.5777 0001467  79.8094 280.3063 15.08839978209990
STARLINK-4751           
1 53825U 22114H   26182.18716530  .00000507  00000+0  49958-4 0  9993
2 53825  53.1600 154.5716 0001327  88.5843 271.5301 15.08835368209960
STARLINK-4756           
1 53826U 22114J   26182.23498651 -.00003550  00000+0 -20510-3 0  9996
2 53826  53.1600 154.1620 0001082  68.5140 291.5967 15.08832521209976
STARLINK-4764           
1 53827U 22114K   26182.90843156  .00000902  00000+0  74774-4 0  9993
2 53827  53.1591 151.2493 0001272  87.7699 272.3438 15.08839579210078
STARLINK-4760           
1 53828U 22114L   26182.69497800  .00000419  00000+0  44407-4 0  9994
2 53828  53.1587 152.0533 0001087  87.8609 272.2507 15.08833234210049
STARLINK-4759           
1 53829U 22114M   26182.24235380  .00000379  00000+0  41932-4 0  9994
2 53829  53.1590 154.2044 0001228  84.2110 275.9022 15.08833298209972
STARLINK-4761           
1 53830U 22114N   26182.22392227 -.00006087  00000+0 -36455-3 0  9995
2 53830  53.1597 154.0933 0001057  88.8422 271.2691 15.08849207209970
STARLINK-4649           
1 53831U 22114P   26182.23866881  .00000292  00000+0  36432-4 0  9995
2 53831  53.1592 154.1826 0001286  84.6878 275.4260 15.08833473209977
