OBJECT_NAME,OBJECT_ID,EPOCH,MEAN_MOTION,ECCENTRICITY,INCLINATION,RA_OF_ASC_NODE,ARG_OF_PERICENTER,MEAN_ANOMALY,EPHEMERIS_TYPE,CLASSIFICATION_TYPE,NORAD_CAT_ID,ELEMENT_SET_NO,REV_AT_EPOCH,BSTAR,MEAN_MOTION_DOT,MEAN_MOTION_DDOT
STARLINK-4536,2022-111L,2026-07-01T20:43:12.168192,15.08836569,.00014367,53.1608,121.3124,91.9556,268.1600,0,U,53783,999,21093,.65381196E-4,.753E-5,0
STARLINK-4687,2022-111M,2026-07-01T22:00:01.999584,15.24362227,.00018093,53.1608,120.6151,90.2924,77.1183,0,U,53784,999,579,.35199162E-1,.944897E-2,0
STARLINK-4743,2022-111Q,2026-07-01T22:00:01.999584,15.18344035,.00013557,53.1613,120.8059,58.7348,8.8932,0,U,53787,999,579,.26149911E-2,.54448E-3,0
STARLINK-4666,2022-111S,2026-07-01T02:47:26.204928,15.08838986,.00015108,53.1595,124.4724,88.7785,271.3380,0,U,53789,999,21081,.54843344E-3,.8451E-4,0
STARLINK-4734,2022-111T,2026-07-01T22:00:01.999584,15.20483784,.00021022,53.1610,120.7287,67.1528,40.2518,0,U,53790,999,579,.27212948E-2,.60366E-3,0
STARLINK-4739,2022-111V,2026-07-01T22:00:01.999584,15.22419152,.00008017,53.1606,121.0690,124.8348,164.4916,0,U,53792,999,580,.4528559E-1,.1151379E-1,0
STARLINK-4728,2022-111W,2026-07-01T22:00:01.999584,15.19105087,.0002006,53.1610,120.7124,81.9388,30.4826,0,U,53793,999,564,.54024654E-1,.1257046E-1,0
STARLINK-4730,2022-111X,2026-07-01T22:00:01.999584,15.20966831,.00019596,53.1618,120.6776,79.0780,53.2227,0,U,53794,999,579,.24611581E-2,.55304E-3,0
STARLINK-4742,2022-111Y,2026-07-01T22:00:01.999584,15.12971054,.00010345,53.1604,120.7988,68.1332,359.5524,0,U,53795,999,575,.12980062E-2,.22936E-3,0
STARLINK-4723,2022-111AA,2026-07-01T22:00:01.999584,15.18010257,.00012298,53.1596,120.5293,99.7649,108.2319,0,U,53797,999,580,.33470734E-1,.742092E-2,0
STARLINK-4712,2022-111AB,2026-07-01T22:00:01.999584,15.19555999,.00018381,53.1597,120.5060,104.5059,114.9162,0,U,53798,999,570,.22549893E-2,.4855E-3,0
STARLINK-4710,2022-111AC,2026-07-01T22:00:01.999584,15.28302842,.00014854,53.1593,110.1889,67.5974,327.0709,0,U,53799,999,574,.31200428E-1,.942647E-2,0
STARLINK-4720,2022-111AD,2026-07-01T21:49:58.993248,15.62149773,.00029762,53.2073,48.0614,129.8563,230.2714,0,U,53800,999,21195,.6243632E-3,.55691E-3,0
STARLINK-4715,2022-111AE,2026-07-01T22:00:01.999584,15.25496218,.00011705,53.1592,110.1881,75.5529,318.9387,0,U,53801,999,565,.36685387E-1,.1025757E-1,0
STARLINK-4726,2022-111AF,2026-07-01T22:00:01.999584,15.28464862,.000158,53.1594,110.0583,89.4947,12.1229,0,U,53802,999,579,.27513933E-1,.83848E-2,0
STARLINK-4727,2022-111AG,2026-07-01T22:29:52.638720,15.08832272,.00020481,53.1608,96.1042,74.6808,285.4410,0,U,53803,999,21127,.22541267E-3,.33E-4,0
STARLINK-4729,2022-111AH,2026-07-01T18:47:19.081536,15.08837863,.00013709,53.1605,106.5381,84.8003,275.3144,0,U,53804,999,21111,.71484514E-4,.85E-5,0
STARLINK-4763,2022-111AJ,2026-07-01T22:00:01.999584,15.13883003,.00016765,53.1585,96.2404,106.2479,119.1404,0,U,53805,999,580,.24412706E-2,.44667E-3,0
STARLINK-4768,2022-111AK,2026-07-01T22:03:20.626272,15.08832745,.00014219,53.1605,95.9858,88.9909,271.1245,0,U,53806,999,21127,.16779591E-4,-.21E-6,0
STARLINK-4738,2022-114B,2026-07-01T22:00:01.999584,15.21202914,.00008172,53.1619,150.6723,111.4020,215.6184,0,U,53819,999,570,.51211166E-1,.1267283E-1,0
STARLINK-4758,2022-114C,2026-07-01T04:40:07.944960,15.08834330,.00011196,53.1602,154.6176,78.7065,281.4052,0,U,53820,999,20996,.2146592E-5,-.254E-5,0
STARLINK-4748,2022-114F,2026-07-01T23:05:04.440480,15.09145688,.00023267,53.1612,105.9312,102.9539,257.1712,0,U,53823,999,21071,.2227111E-2,.35636E-3,0
STARLINK-4757,2022-114G,2026-07-01T21:53:19.582944,15.08839978,.00014674,53.1597,150.5777,79.8094,280.3063,0,U,53824,999,20999,.64068294E-4,.732E-5,0
STARLINK-4751,2022-114H,2026-07-01T04:29:31.081920,15.08835368,.0001327,53.1600,154.5716,88.5843,271.5301,0,U,53825,999,20996,.49957644E-4,.507E-5,0
STARLINK-4756,2022-114J,2026-07-01T05:38:22.834464,15.08832521,.00010822,53.1600,154.1620,68.5140,291.5967,0,U,53826,999,20997,-.20509903E-3,-.355E-4,0
STARLINK-4764,2022-114K,2026-07-01T21:48:08.486784,15.08839579,.00012725,53.1591,151.2493,87.7699,272.3438,0,U,53827,999,21007,.74773823E-4,.902E-5,0
STARLINK-4760,2022-114L,2026-07-01T16:40:46.099200,15.08833234,.00010873,53.1587,152.0533,87.8609,272.2507,0,U,53828,999,21004,.44406987E-4,.419E-5,0
STARLINK-4759,2022-114M,2026-07-01T05:48:59.368320,15.08833298,.00012285,53.1590,154.2044,84.2110,275.9022,0,U,53829,999,20997,.41932332E-4,.379E-5,0
STARLINK-4761,2022-114N,2026-07-01T05:22:26.884128,15.08849207,.00010578,53.1597,154.0933,88.8422,271.2691,0,U,53830,999,20997,-.36455314E-3,-.6087E-4,0
STARLINK-4649,2022-114P,2026-07-01T05:43:40.985184,15.08833473,.00012863,53.1592,154.1826,84.6878,275.4260,0,U,53831,999,20997,.36431676E-4,.292E-5,0
